OBJECT_NAME,OBJECT_ID,EPOCH,MEAN_MOTION,ECCENTRICITY,INCLINATION,RA_OF_ASC_NODE,ARG_OF_PERICENTER,MEAN_ANOMALY,EPHEMERIS_TYPE,CLASSIFICATION_TYPE,NORAD_CAT_ID,ELEMENT_SET_NO,REV_AT_EPOCH,BSTAR,MEAN_MOTION_DOT,MEAN_MOTION_DDOT
BADR-5,2010-025A,2026-07-20T06:25:40.442880,1.00273677,.00053807,0.0594,110.6809,83.5580,230.6834,0,U,36592,999,5354,0,.152E-5,0
COMS 1,2010-032A,2026-07-20T02:35:20.375808,0.99166795,.00114169,4.8878,74.9595,15.0884,189.2025,0,U,36744,999,5141,0,-.2E-5,0
ARABSAT-5A,2010-032B,2026-07-20T06:25:40.442880,1.00269734,.00053811,0.1226,68.5393,56.0270,300.3896,0,U,36745,999,5897,0,.151E-5,0
ECHOSTAR 15,2010-034A,2026-07-20T06:22:31.787616,1.00273530,.00019604,0.0353,272.8999,190.4716,171.5042,0,U,36792,999,5865,0,-.3E-7,0
BEIDOU-2 IGSO-1,2010-036A,2026-07-19T14:08:33.404064,1.00262639,.00586524,54.3073,162.6674,225.1805,228.5775,0,U,36828,999,5842,0,-.97E-6,0
NILESAT 201,2010-037A,2026-07-20T06:15:11.448288,1.00270938,.00049991,0.0410,219.4611,274.8131,250.5582,0,U,36830,999,5870,0,-.6E-6,0
RASCOM-QAF 1R,2010-037B,2026-07-20T06:17:56.183712,1.00271646,.00061237,0.0157,77.6504,31.8494,285.9144,0,U,36831,999,5863,0,.16E-6,0
AEHF-1 (USA 214),2010-039A,2026-07-20T06:25:40.442880,1.00277738,.00039461,8.3007,67.6157,37.4778,319.4034,0,U,36868,999,5398,0,.141E-5,0
XM-5,2010-053A,2026-07-20T07:03:49.025088,1.00272284,.00012611,0.0625,264.9333,317.1370,66.7572,0,U,37185,999,5781,0,-.25E-6,0
BSAT-3B,2010-056B,2026-07-20T06:48:30.752064,1.00271592,.00027716,0.0630,242.1867,294.6255,333.2149,0,U,37207,999,5243,0,-.352E-5,0
BEIDOU-2 G4,2010-057A,2026-07-20T08:18:51.452640,1.00272769,.00054158,3.7277,68.7436,185.5898,328.4387,0,U,37210,999,5762,0,-.117E-5,0
SKYTERRA 1,2010-061A,2026-07-20T06:29:25.094112,1.00272025,.00026198,5.1938,50.8004,29.1278,214.1350,0,U,37218,999,5752,0,-.123E-5,0
HYLAS 1,2010-065A,2026-07-20T04:45:37.706976,1.00644074,.00011706,5.7251,72.6107,137.9074,197.9062,0,U,37237,999,721,0,.115E-5,0
INTELSAT 17 (IS-17),2010-065B,2026-07-20T03:10:39.489600,1.00272739,.00025756,0.0102,95.2952,36.4198,279.8601,0,U,37238,999,5357,0,-.4E-7,0
BEIDOU-2 IGSO-2,2010-068A,2026-07-19T20:07:19.149312,1.00272665,.00570323,47.4862,271.4234,214.1385,222.1771,0,U,37256,999,5712,0,-.205E-5,0
EUTELSAT KA-SAT 9A,2010-069A,2026-07-20T06:19:41.017152,1.00272262,.00045902,0.0619,8.7667,138.9958,254.1843,0,U,37258,999,4433,0,.6E-6,0
HISPASAT 30W-5,2010-070A,2026-07-20T06:08:34.581984,1.00269821,.00058473,0.0387,106.2770,22.9622,230.9056,0,U,37264,999,5351,0,-.218E-5,0
KOREASAT 6,2010-070B,2026-07-20T07:29:38.380992,1.00271505,.00027526,0.0208,80.7861,49.2525,80.3439,0,U,37265,999,5710,0,-.113E-5,0
BEIDOU-2 IGSO-3,2011-013A,2026-07-19T11:57:45.076896,1.00259758,.00356634,62.4524,39.8452,183.4558,359.6554,0,U,37384,999,5598,0,-.176E-5,0
INTELSAT 28 (IS-28),2011-016A,2026-07-20T06:08:04.628832,1.00271583,.0003902,1.8897,82.2239,42.1766,233.9417,0,U,37392,999,5361,0,-.228E-5,0
YAHSAT 1A,2011-016B,2026-07-20T06:31:39.867744,1.00271120,.00031987,0.0187,72.8290,41.4817,334.1473,0,U,37393,999,4273,0,.99E-6,0
SBIRS GEO-1 (USA 230),2011-019A,2026-07-20T06:31:39.867744,1.00266083,.00019161,4.6069,53.0921,52.2403,342.4329,0,U,37481,999,5573,0,.96E-6,0
TELSTAR 14R,2011-021A,2026-07-20T07:34:45.031008,0.98982221,.00080295,0.0966,84.9471,293.7029,305.9108,0,U,37602,999,5616,0,-.35E-6,0
GSAT-8,2011-022A,2026-07-20T04:50:14.764992,1.00270921,.00025294,2.2144,81.4233,152.8051,191.3883,0,U,37605,999,5354,0,.81E-6,0
ST-2,2011-022B,2026-07-20T02:27:21.698208,1.00271251,.00017551,0.0222,86.6920,47.8634,288.1825,0,U,37606,999,5560,0,-.214E-5,0
ZHONGXING-10,2011-026A,2026-07-20T03:16:16.451328,1.00273176,.00034462,1.1310,83.8329,19.8498,328.7996,0,U,37677,999,5532,0,-.192E-5,0
SES-3,2011-035A,2026-07-20T06:31:00.522048,1.00271890,.00021675,1.4101,82.7259,36.0963,173.9867,0,U,37748,999,5492,0,-.105E-5,0
KAZSAT-2,2011-035B,2026-07-20T02:27:21.698208,1.00272301,.00020604,0.0265,112.6954,57.1348,251.4069,0,U,37749,999,5372,0,-.2E-5,0
BEIDOU-2 IGSO-4,2011-038A,2026-07-19T20:04:35.715072,1.00278594,.01603233,54.6050,165.3822,231.4991,296.2808,0,U,37763,999,5497,0,-.23E-6,0
ASTRA 1N,2011-041A,2026-07-20T06:22:33.241728,1.00272458,.00059715,0.0645,20.4975,95.9943,296.3591,0,U,37775,999,4485,0,.118E-5,0
BSAT-3C (JCSAT-110R),2011-041B,2026-07-20T06:48:30.752064,1.00271882,.00002331,0.0283,317.3119,219.5470,333.2812,0,U,37776,999,5080,0,-.352E-5,0
PAKSAT-1R,2011-042A,2026-07-20T04:45:15.242976,1.00271666,.00031928,0.7726,84.2909,354.5140,328.4334,0,U,37779,999,5480,0,.151E-5,0
