BADR-5                  
1 36592U 10025A   26201.26782920  .00000152  00000+0  00000+0 0  9996
2 36592   0.0594 110.6809 0005380  83.5580 230.6834  1.00273677 53541
COMS 1                  
1 36744U 10032A   26201.10787472 -.00000200  00000+0  00000+0 0  9998
2 36744   4.8878  74.9595 0011416  15.0884 189.2025  0.99166795 51419
ARABSAT-5A              
1 36745U 10032B   26201.26782920  .00000151  00000+0  00000+0 0  9993
2 36745   0.1226  68.5393 0005381  56.0270 300.3896  1.00269734 58979
ECHOSTAR 15             
1 36792U 10034A   26201.26564569 -.00000003  00000+0  00000+0 0  9991
2 36792   0.0353 272.8999 0001960 190.4716 171.5042  1.00273530 58655
BEIDOU-2 IGSO-1         
1 36828U 10036A   26200.58927551 -.00000097  00000+0  00000+0 0  9994
2 36828  54.3073 162.6674 0058652 225.1805 228.5775  1.00262639 58426
NILESAT 201             
1 36830U 10037A   26201.26054917 -.00000060  00000+0  00000+0 0  9991
2 36830   0.0410 219.4611 0004999 274.8131 250.5582  1.00270938 58705
RASCOM-QAF 1R           
1 36831U 10037B   26201.26245583  .00000016  00000+0  00000+0 0  9993
2 36831   0.0157  77.6504 0006123  31.8494 285.9144  1.00271646 58638
AEHF-1 (USA 214)        
1 36868U 10039A   26201.26782920  .00000141  00000+0  00000+0 0  9995
2 36868   8.3007  67.6157 0003946  37.4778 319.4034  1.00277738 53985
XM-5                    
1 37185U 10053A   26201.29431742 -.00000025  00000+0  00000+0 0  9992
2 37185   0.0625 264.9333 0001261 317.1370  66.7572  1.00272284 57811
BSAT-3B                 
1 37207U 10056B   26201.28368926 -.00000352  00000+0  00000+0 0  9995
2 37207   0.0630 242.1867 0002771 294.6255 333.2149  1.00271592 52436
BEIDOU-2 G4             
1 37210U 10057A   26201.34642885 -.00000117  00000+0  00000+0 0  9995
2 37210   3.7277  68.7436 0005415 185.5898 328.4387  1.00272769 57623
SKYTERRA 1              
1 37218U 10061A   26201.27042933 -.00000123  00000+0  00000+0 0  9995
2 37218   5.1938  50.8004 0002619  29.1278 214.1350  1.00272025 57527
HYLAS 1                 
1 37237U 10065A   26201.19835309  .00000115  00000+0  00000+0 0  9998
2 37237   5.7251  72.6107 0001170 137.9074 197.9062  1.00644074  7217
INTELSAT 17 (IS-17)     
1 37238U 10065B   26201.13240150 -.00000004  00000+0  00000+0 0  9995
2 37238   0.0102  95.2952 0002575  36.4198 279.8601  1.00272739 53574
BEIDOU-2 IGSO-2         
1 37256U 10068A   26200.83841608 -.00000205  00000+0  00000+0 0  9992
2 37256  47.4862 271.4234 0057032 214.1385 222.1771  1.00272665 57126
EUTELSAT KA-SAT 9A      
1 37258U 10069A   26201.26366918  .00000060  00000+0  00000+0 0  9997
2 37258   0.0619   8.7667 0004590 138.9958 254.1843  1.00272262 44331
HISPASAT 30W-5          
1 37264U 10070A   26201.25595581 -.00000218  00000+0  00000+0 0  9991
2 37264   0.0387 106.2770 0005847  22.9622 230.9056  1.00269821 53510
KOREASAT 6              
1 37265U 10070B   26201.31224978 -.00000113  00000+0  00000+0 0  9992
2 37265   0.0208  80.7861 0002752  49.2525  80.3439  1.00271505 57109
BEIDOU-2 IGSO-3         
1 37384U 11013A   26200.49843839 -.00000176  00000+0  00000+0 0  9992
2 37384  62.4524  39.8452 0035663 183.4558 359.6554  1.00259758 55989
INTELSAT 28 (IS-28)     
1 37392U 11016A   26201.25560913 -.00000228  00000+0  00000+0 0  9996
2 37392   1.8897  82.2239 0003902  42.1766 233.9417  1.00271583 53616
YAHSAT 1A               
1 37393U 11016B   26201.27198921  .00000099  00000+0  00000+0 0  9990
2 37393   0.0187  72.8290 0003198  41.4817 334.1473  1.00271120 42732
SBIRS GEO-1 (USA 230)   
1 37481U 11019A   26201.27198921  .00000096  00000+0  00000+0 0  9998
2 37481   4.6069  53.0921 0001916  52.2403 342.4329  1.00266083 55736
TELSTAR 14R             
1 37602U 11021A   26201.31579897 -.00000035  00000+0  00000+0 0  9990
2 37602   0.0966  84.9471 0008029 293.7029 305.9108  0.98982221 56160
GSAT-8                  
1 37605U 11022A   26201.20155978  .00000081  00000+0  00000+0 0  9992
2 37605   2.2144  81.4233 0002529 152.8051 191.3883  1.00270921 53549
ST-2                    
1 37606U 11022B   26201.10233447 -.00000214  00000+0  00000+0 0  9999
2 37606   0.0222  86.6920 0001755  47.8634 288.1825  1.00271251 55600
ZHONGXING-10            
1 37677U 11026A   26201.13630152 -.00000192  00000+0  00000+0 0  9993
2 37677   1.1310  83.8329 0003446  19.8498 328.7996  1.00273176 55323
SES-3                   
1 37748U 11035A   26201.27153382 -.00000105  00000+0  00000+0 0  9996
2 37748   1.4101  82.7259 0002167  36.0963 173.9867  1.00271890 54923
KAZSAT-2                
1 37749U 11035B   26201.10233447 -.00000200  00000+0  00000+0 0  9996
2 37749   0.0265 112.6954 0002060  57.1348 251.4069  1.00272301 53729
BEIDOU-2 IGSO-4         
1 37763U 11038A   26200.83652448 -.00000023  00000+0  00000+0 0  9993
2 37763  54.6050 165.3822 0160323 231.4991 296.2808  1.00278594 54975
ASTRA 1N                
1 37775U 11041A   26201.26566252  .00000118  00000+0  00000+0 0  9999
2 37775   0.0645  20.4975 0005971  95.9943 296.3591  1.00272458 44859
BSAT-3C (JCSAT-110R)    
1 37776U 11041B   26201.28368926 -.00000352  00000+0  00000+0 0  9991
2 37776   0.0283 317.3119 0000233 219.5470 333.2812  1.00271882 50800
PAKSAT-1R               
1 37779U 11042A   26201.19809309  .00000151  00000+0  00000+0 0  9996
2 37779   0.7726  84.2909 0003192 354.5140 328.4334  1.00271666 54809
